FENGYUN 1C DEB          
1 30056U 99025PH  17345.73828731  .00000814  00000-0  75775-3 0  9995
2 30056  98.3372 164.4803 0328205  74.5343 289.1794 13.62573208540848
